start=new Date('2022-08-18T00:00:00.000Z').valueOf();
sats=[{"SEMIMAJOR_AXIS":"6925.368","MEAN_MOTION":"15.06393819","MEAN_MOTION_DDOT":"0.0000000000000","LAUNCH_DATE":"2020-10-06","CLASSIFICATION_TYPE":"U","ELEMENT_SET_NO":"999","EPOCH":"2022-08-17T07:16:01.907904","TLE_LINE2":"2 46543  53.0539 254.2809 0001528  73.0370 287.0786 15.06393819103507","CENTER_NAME":"EARTH","EPHEMERIS_TYPE":"0","SITE":"AFETR","COUNTRY_CODE":"US","OBJECT_TYPE":"PAYLOAD","TIME_SYSTEM":"UTC","APOAPSIS":"548.291","OBJECT_NAME":"STARLINK-1693","BSTAR":"0.00006834200000","NORAD_CAT_ID":"46543","REF_FRAME":"TEME","ECCENTRICITY":"0.00015280","OBJECT_ID":"2020-070M","MEAN_MOTION_DOT":"0.00000736","INCLINATION":"53.0539","GP_ID":"210403631","MEAN_ELEMENT_THEORY":"SGP4","RCS_SIZE":"LARGE","RA_OF_ASC_NODE":"254.2809","DECAY_DATE":null,"MEAN_ANOMALY":"287.0786","TLE_LINE1":"1 46543U 20070M   22229.30279986  .00000736  00000-0  68342-4 0  9995","ARG_OF_PERICENTER":"73.0370","PERIAPSIS":"546.174","PERIOD":"95.593","FILE":"3538809","REV_AT_EPOCH":"10350"},{"SEMIMAJOR_AXIS":"6925.354","MEAN_MOTION":"15.06398239","MEAN_MOTION_DDOT":"0.0000000000000","LAUNCH_DATE":"2020-10-06","CLASSIFICATION_TYPE":"U","ELEMENT_SET_NO":"999","EPOCH":"2022-08-17T08:45:36.575424","TLE_LINE2":"2 46544  53.0532 239.0171 0001439  71.1857 288.9288 15.06398239103726","CENTER_NAME":"EARTH","EPHEMERIS_TYPE":"0","SITE":"AFETR","COUNTRY_CODE":"US","OBJECT_TYPE":"PAYLOAD","APOAPSIS":"548.216","TIME_SYSTEM":"UTC","OBJECT_NAME":"STARLINK-1694","BSTAR":"0.00002464400000","NORAD_CAT_ID":"46544","REF_FRAME":"TEME","ECCENTRICITY":"0.00014390","MEAN_MOTION_DOT":"0.00000086","OBJECT_ID":"2020-070N","GP_ID":"210404381","INCLINATION":"53.0532","MEAN_ELEMENT_THEORY":"SGP4","RCS_SIZE":"LARGE","RA_OF_ASC_NODE":"239.0171","DECAY_DATE":null,"MEAN_ANOMALY":"288.9288","TLE_LINE1":"1 46544U 20070N   22229.36500666  .00000086  00000-0  24644-4 0  9999","PERIOD":"95.592","PERIAPSIS":"546.222","ARG_OF_PERICENTER":"71.1857","FILE":"3538809","REV_AT_EPOCH":"10372"},{"MEAN_MOTION":"15.06403620","SEMIMAJOR_AXIS":"6925.337","LAUNCH_DATE":"2020-10-06","MEAN_MOTION_DDOT":"0.0000000000000","CENTER_NAME":"EARTH","EPHEMERIS_TYPE":"0","ELEMENT_SET_NO":"999","CLASSIFICATION_TYPE":"U","TLE_LINE2":"2 46545  53.0529 253.5261 0001294  68.6028 291.5099 15.06403620103523","EPOCH":"2022-08-17T11:20:11.286240","OBJECT_TYPE":"PAYLOAD","TIME_SYSTEM":"UTC","APOAPSIS":"548.099","SITE":"AFETR","COUNTRY_CODE":"US","NORAD_CAT_ID":"46545","REF_FRAME":"TEME","OBJECT_NAME":"STARLINK-1696","BSTAR":"0.00002023000000","MEAN_MOTION_DOT":"0.00000020","OBJECT_ID":"2020-070P","INCLINATION":"53.0529","GP_ID":"210403131","ECCENTRICITY":"0.00012940","DECAY_DATE":null,"MEAN_ELEMENT_THEORY":"SGP4","RCS_SIZE":"LARGE","RA_OF_ASC_NODE":"253.5261","FILE":"3538809","REV_AT_EPOCH":"10352","MEAN_ANOMALY":"291.5099","TLE_LINE1":"1 46545U 20070P   22229.47235285  .00000020  00000-0  20230-4 0  9999","PERIAPSIS":"546.306","ARG_OF_PERICENTER":"68.6028","PERIOD":"95.592"},{"ELEMENT_SET_NO":"999","CLASSIFICATION_TYPE":"U","EPOCH":"2022-08-17T09:23:25.537056","TLE_LINE2":"2 46546  53.0547 253.8861 0001555  56.5606 303.5531 15.06395758103517","EPHEMERIS_TYPE":"0","CENTER_NAME":"EARTH","SITE":"AFETR","COUNTRY_CODE":"US","OBJECT_TYPE":"PAYLOAD","TIME_SYSTEM":"UTC","APOAPSIS":"548.303","SEMIMAJOR_AXIS":"6925.362","MEAN_MOTION":"15.06395758","MEAN_MOTION_DDOT":"0.0000000000000","LAUNCH_DATE":"2020-10-06","RCS_SIZE":"LARGE","MEAN_ELEMENT_THEORY":"SGP4","RA_OF_ASC_NODE":"253.8861","DECAY_DATE":null,"MEAN_ANOMALY":"303.5531","PERIOD":"95.592","PERIAPSIS":"546.150","ARG_OF_PERICENTER":"56.5606","TLE_LINE1":"1 46546U 20070Q   22229.39126779  .00000565  00000-0  56865-4 0  9995","REV_AT_EPOCH":"10351","FILE":"3538809","BSTAR":"0.00005686500000","OBJECT_NAME":"STARLINK-1697","NORAD_CAT_ID":"46546","REF_FRAME":"TEME","ECCENTRICITY":"0.00015550","OBJECT_ID":"2020-070Q","MEAN_MOTION_DOT":"0.00000565","INCLINATION":"53.0547","GP_ID":"210403381"},{"FILE":"3538809","REV_AT_EPOCH":"10353","MEAN_ANOMALY":"293.7887","TLE_LINE1":"1 46547U 20070R   22229.48615024  .00002389  00000-0  17921-3 0  9997","PERIAPSIS":"546.005","ARG_OF_PERICENTER":"66.3283","PERIOD":"95.592","DECAY_DATE":null,"MEAN_ELEMENT_THEORY":"SGP4","RCS_SIZE":"LARGE","RA_OF_ASC_NODE":"253.4523","OBJECT_ID":"2020-070R","MEAN_MOTION_DOT":"0.00002389","GP_ID":"210404131","INCLINATION":"53.0546","ECCENTRICITY":"0.00017220","NORAD_CAT_ID":"46547","REF_FRAME":"TEME","OBJECT_NAME":"STARLINK-1698","BSTAR":"0.00017921000000","OBJECT_TYPE":"PAYLOAD","TIME_SYSTEM":"UTC","APOAPSIS":"548.390","SITE":"AFETR","COUNTRY_CODE":"US","CENTER_NAME":"EARTH","EPHEMERIS_TYPE":"0","CLASSIFICATION_TYPE":"U","ELEMENT_SET_NO":"999","TLE_LINE2":"2 46547  53.0546 253.4523 0001722  66.3283 293.7887 15.06405143103530","EPOCH":"2022-08-17T11:40:03.380736","LAUNCH_DATE":"2020-10-06","MEAN_MOTION_DDOT":"0.0000000000000","MEAN_MOTION":"15.06405143","SEMIMAJOR_AXIS":"6925.333"},{"ELEMENT_SET_NO":"999","CLASSIFICATION_TYPE":"U","EPOCH":"2022-08-17T07:10:43.358016","TLE_LINE2":"2 46548  53.0542 254.3032 0001382  74.7295 285.3846 15.06404779103503","CENTER_NAME":"EARTH","EPHEMERIS_TYPE":"0","SITE":"AFETR","COUNTRY_CODE":"US","OBJECT_TYPE":"PAYLOAD","APOAPSIS":"548.156","TIME_SYSTEM":"UTC","SEMIMAJOR_AXIS":"6925.334","MEAN_MOTION":"15.06404779","MEAN_MOTION_DDOT":"0.0000000000000","LAUNCH_DATE":"2020-10-06","RCS_SIZE":"LARGE","MEAN_ELEMENT_THEORY":"SGP4","RA_OF_ASC_NODE":"254.3032","DECAY_DATE":null,"MEAN_ANOMALY":"285.3846","PERIOD":"95.592","PERIAPSIS":"546.242","ARG_OF_PERICENTER":"74.7295","TLE_LINE1":"1 46548U 20070S   22229.29911294  .00001792  00000-0  13914-3 0  9990","REV_AT_EPOCH":"10350","FILE":"3538809","BSTAR":"0.00013914000000","OBJECT_NAME":"STARLINK-1699","NORAD_CAT_ID":"46548","REF_FRAME":"TEME","ECCENTRICITY":"0.00013820","MEAN_MOTION_DOT":"0.00001792","OBJECT_ID":"2020-070S","GP_ID":"210403882","INCLINATION":"53.0542"},{"REF_FRAME":"TEME","NORAD_CAT_ID":"46549","BSTAR":"0.00002138900000","OBJECT_NAME":"STARLINK-1700","INCLINATION":"53.0540","GP_ID":"210402632","OBJECT_ID":"2020-070T","MEAN_MOTION_DOT":"0.00000037","ECCENTRICITY":"0.00015180","DECAY_DATE":null,"RA_OF_ASC_NODE":"253.5786","RCS_SIZE":"LARGE","MEAN_ELEMENT_THEORY":"SGP4","REV_AT_EPOCH":"10323","FILE":"3538809","PERIAPSIS":"546.152","PERIOD":"95.592","ARG_OF_PERICENTER":"75.7944","TLE_LINE1":"1 46549U 20070T   22229.46129808  .00000037  00000-0  21389-4 0  9999","MEAN_ANOMALY":"284.3214","MEAN_MOTION":"15.06403394","SEMIMAJOR_AXIS":"6925.338","LAUNCH_DATE":"2020-10-06","MEAN_MOTION_DDOT":"0.0000000000000","EPHEMERIS_TYPE":"0","CENTER_NAME":"EARTH","EPOCH":"2022-08-17T11:04:16.154112","TLE_LINE2":"2 46549  53.0540 253.5786 0001518  75.7944 284.3214 15.06403394103232","CLASSIFICATION_TYPE":"U","ELEMENT_SET_NO":"999","TIME_SYSTEM":"UTC","APOAPSIS":"548.254","OBJECT_TYPE":"PAYLOAD","COUNTRY_CODE":"US","SITE":"AFETR"},{"SEMIMAJOR_AXIS":"6925.395","MEAN_MOTION":"15.06384920","MEAN_MOTION_DDOT":"0.0000000000000","LAUNCH_DATE":"2020-10-06","TLE_LINE2":"2 46550  53.0531 253.9447 0001516  60.3992 299.7148 15.06384920103513","EPOCH":"2022-08-17T09:07:30.743616","CLASSIFICATION_TYPE":"U","ELEMENT_SET_NO":"999","CENTER_NAME":"EARTH","EPHEMERIS_TYPE":"0","COUNTRY_CODE":"US","SITE":"AFETR","APOAPSIS":"548.310","TIME_SYSTEM":"UTC","OBJECT_TYPE":"PAYLOAD","OBJECT_NAME":"STARLINK-1701","BSTAR":"-0.00000840920000","REF_FRAME":"TEME","NORAD_CAT_ID":"46550","ECCENTRICITY":"0.00015160","GP_ID":"210402882","INCLINATION":"53.0531","OBJECT_ID":"2020-070U","MEAN_MOTION_DOT":"-0.00000407","RA_OF_ASC_NODE":"253.9447","MEAN_ELEMENT_THEORY":"SGP4","RCS_SIZE":"LARGE","DECAY_DATE":null,"TLE_LINE1":"1 46550U 20070U   22229.38021694 -.00000407  00000-0 -84092-5 0  9990","PERIAPSIS":"546.210","PERIOD":"95.593","ARG_OF_PERICENTER":"60.3992","MEAN_ANOMALY":"299.7148","FILE":"3538809","REV_AT_EPOCH":"10351"},{"ECCENTRICITY":"0.00023630","GP_ID":"210403632","INCLINATION":"53.0528","MEAN_MOTION_DOT":"0.00647989","OBJECT_ID":"2020-070W","OBJECT_NAME":"STARLINK-1649","BSTAR":"0.03416900000000","REF_FRAME":"TEME","NORAD_CAT_ID":"46552","TLE_LINE1":"1 46552U 20070W   22229.52875813  .00647989  00000-0  34169-1 0  9994","PERIAPSIS":"525.989","ARG_OF_PERICENTER":"54.6208","PERIOD":"95.187","MEAN_ANOMALY":"305.5004","FILE":"3538809","REV_AT_EPOCH":"10375","RA_OF_ASC_NODE":"238.1569","MEAN_ELEMENT_THEORY":"SGP4","RCS_SIZE":"LARGE","DECAY_DATE":null,"MEAN_MOTION_DDOT":"0.0000000000000","LAUNCH_DATE":"2020-10-06","SEMIMAJOR_AXIS":"6905.756","MEAN_MOTION":"15.12815353","COUNTRY_CODE":"US","SITE":"AFETR","APOAPSIS":"529.253","TIME_SYSTEM":"UTC","OBJECT_TYPE":"PAYLOAD","TLE_LINE2":"2 46552  53.0528 238.1569 0002363  54.6208 305.5004 15.12815353103757","EPOCH":"2022-08-17T12:41:24.702432","ELEMENT_SET_NO":"999","CLASSIFICATION_TYPE":"U","CENTER_NAME":"EARTH","EPHEMERIS_TYPE":"0"},{"BSTAR":"-0.00002305700000","OBJECT_NAME":"STARLINK-1664","NORAD_CAT_ID":"46553","REF_FRAME":"TEME","ECCENTRICITY":"0.00015630","OBJECT_ID":"2020-070X","MEAN_MOTION_DOT":"-0.00000625","INCLINATION":"53.0541","GP_ID":"210404382","RCS_SIZE":"LARGE","MEAN_ELEMENT_THEORY":"SGP4","RA_OF_ASC_NODE":"223.4083","DECAY_DATE":null,"MEAN_ANOMALY":"285.3451","ARG_OF_PERICENTER":"74.7711","PERIAPSIS":"546.110","PERIOD":"95.592","TLE_LINE1":"1 46553U 20070X   22229.50092018 -.00000625  00000-0 -23057-4 0  9990","REV_AT_EPOCH":"10395","FILE":"3538809","SEMIMAJOR_AXIS":"6925.327","MEAN_MOTION":"15.06406974","MEAN_MOTION_DDOT":"0.0000000000000","LAUNCH_DATE":"2020-10-06","CLASSIFICATION_TYPE":"U","ELEMENT_SET_NO":"999","EPOCH":"2022-08-17T12:01:19.503552","TLE_LINE2":"2 46553  53.0541 223.4083 0001563  74.7711 285.3451 15.06406974103955","CENTER_NAME":"EARTH","EPHEMERIS_TYPE":"0","SITE":"AFETR","COUNTRY_CODE":"US","OBJECT_TYPE":"PAYLOAD","APOAPSIS":"548.275","TIME_SYSTEM":"UTC"}];
